0 OPS 7869 (DMSP 4B F1)
1 03266U 68042A   13282.47014664  .00000017  00000-0  31870-4 0  6971
2 03266 099.0207 105.5628 0053170 192.8983 219.7651 14.14959751258090
0 OPS 7869 (DMSP 4B F1)
1 03266U 68042A   13283.59943465  .00000023  00000-0  35030-4 0  6985
2 03266 099.0205 106.7045 0053230 189.6967 212.1983 14.14959902258258
0 OPS 7869 (DMSP 4B F1)
1 03266U 68042A   13286.15910939  .00000114  00000-0  81609-4 0  7008
2 03266 099.0202 109.2923 0053349 182.4562 290.8119 14.14959491258618
0 OPS 7869 (DMSP 4B F1)
1 03266U 68042A   13287.49084308  .00000093  00000-0  70834-4 0  7013
2 03266 099.0200 110.6387 0053422 178.7152 234.4416 14.14960166258807
0 OPS 7869 (DMSP 4B F1)
1 03266U 68042A   13288.55111795  .00000067  00000-0  57523-4 0  7024
2 03266 099.0200 111.7105 0053475 175.7399 235.3014 14.14961126258952
0 OPS 7869 (DMSP 4B F1)
1 03266U 68042A   13289.61480817 -.00000002  00000-0  22334-4 0  7039
2 03266 099.0201 112.7857 0053535 172.7545 253.5616 14.14961836259101
0 OPS 7869 (DMSP 4B F1)
1 03266U 68042A   13291.11395476  .00000036  00000-0  41415-4 0  7041
2 03266 099.0203 114.3013 0053587 168.5376 329.9812 14.14961761259313
0 OPS 7869 (DMSP 4B F1)
1 03266U 68042A   13292.51232394  .00000112  00000-0  80196-4 0  7050
2 03266 099.0204 115.7149 0053656 164.5994 253.0657 14.14961273259512
0 OPS 7869 (DMSP 4B F1)
1 03266U 68042A   13293.56889046  .00000144  00000-0  96784-4 0  7064
2 03266 099.0203 116.7829 0053704 161.6361 235.0445 14.14961454259669
0 OPS 7869 (DMSP 4B F1)
1 03266U 68042A   13294.63151150  .00000123  00000-0  85672-4 0  7073
2 03266 099.0203 117.8572 0053739 158.6668 247.8505 14.14962024259819
0 OPS 7869 (DMSP 4B F1)
1 03266U 68042A   13296.13450054  .00000049  00000-0  47900-4 0  7085
2 03266 099.0203 119.3766 0053783 154.4702 343.8104 14.14963235260025
